STARLINK-1083_new
1 14939C 20001AB  21326.10468344  .00005204  00000-0  34861-3 0  3266
2 14939  53.0511 168.2807 0001842  80.4242 144.8745 15.06398006    15
STARLINK-1083_old
1 24939C 20001AB  21325.10833202 -.00003354  00000-0 -22475-3 0  3257
2 24939  53.0520 172.7497 0001877  77.5421 141.5131 15.06399529    18
